H1 CPF 01  gfz 2021 05 28 12  6482 tandemx   
H2 1003001  6202 36605    2021 05 28 12 59 42 2021 06 02 00 00 42   120 1 1  0 0 0
H9
10 0 59365  69102.000000  0    3798241.812  -1944182.315   5397742.360
10 0 59365  69222.000000  0    3039942.257  -1804612.823   5901655.513
10 0 59365  69342.000000  0    2231396.599  -1619818.164   6301775.512
10 0 59365  69462.000000  0    1387507.715  -1392285.569   6591102.289
10 0 59365  69582.000000  0     523731.586  -1125510.282   6764580.147
10 0 59365  69702.000000  0    -344207.848   -823941.129   6819180.418
10 0 59365  69822.000000  0   -1200604.464   -492905.754   6753949.876
10 0 59365  69942.000000  0   -2030052.768   -138516.740   6570026.138
10 0 59365  70062.000000  0   -2817723.770    232440.772   6270619.300
10 0 59365  70182.000000  0   -3549630.340    612637.904   5860960.329
10 0 59365  70302.000000  0   -4212878.560    994344.976   5348215.766
10 0 59365  70422.000000  0   -4795900.386   1369586.528   4741368.339
10 0 59365  70542.000000  0   -5288662.834   1730306.386   4051064.945
10 0 59365  70662.000000  0   -5682848.917   2068538.491   3289432.936
10 0 59365  70782.000000  0   -5972006.183   2376580.097   2469868.685
10 0 59365  70902.000000  0   -6151660.579   2647163.520   1606801.160
10 0 59365  71022.000000  0   -6219392.325   2873622.540    715433.335
10 0 59365  71142.000000  0   -6174869.409   3050048.483   -188533.460
10 0 59365  71262.000000  0   -6019838.944   3171432.022  -1089184.596
10 0 59365  71382.000000  0   -5758076.699   3233786.686  -1970681.262
10 0 59365  71502.000000  0   -5395295.731   3234251.965  -2817548.025
10 0 59365  71622.000000  0   -4939015.671   3171172.022  -3614950.508
10 0 59365  71742.000000  0   -4398398.332   3044149.257  -4348957.550
10 0 59365  71862.000000  0   -3784054.120   2854071.622  -5006782.250
10 0 59365  71982.000000  0   -3107825.029   2603113.494  -5576998.384
10 0 59365  72102.000000  0   -2382550.878   2294711.592  -6049729.001
10 0 59365  72222.000000  0   -1621821.853   1933516.426  -6416807.908
10 0 59365  72342.000000  0    -839722.342   1525319.469  -6671908.307
10 0 59365  72462.000000  0     -50573.379   1076959.308  -6810640.783
10 0 59365  72582.000000  0     731323.700    596207.849  -6830620.021
10 0 59365  72702.000000  0    1491939.960     91638.558  -6731503.281
10 0 59365  72822.000000  0    2217765.785   -427523.368  -6514995.043
10 0 59365  72942.000000  0    2896044.942   -951564.993  -6184820.695
10 0 59365  73062.000000  0    3514996.065  -1470462.531  -5746669.193
10 0 59365  73182.000000  0    4064016.344  -1974067.843  -5208105.235
10 0 59365  73302.000000  0    4533866.988  -2452304.609  -4578450.562
10 0 59365  73422.000000  0    4916834.261  -2895368.821  -3868633.119
10 0 59365  73542.000000  0    5206863.636  -3293929.264  -3091007.260
10 0 59365  73662.000000  0    5399665.102  -3639324.403  -2259145.804
10 0 59365  73782.000000  0    5492785.086  -3923750.874  -1387605.966
10 0 59365  73902.000000  0    5485642.692  -4140439.158   -491674.315
10 0 59365  74022.000000  0    5379529.155  -4283811.739    412905.368
10 0 59365  74142.000000  0    5177569.389  -4349619.686   1310216.102
10 0 59365  74262.000000  0    4884645.040  -4335052.717   2184456.938
10 0 59365  74382.000000  0    4507282.342  -4238819.165   3020230.175
10 0 59365  74502.000000  0    4053507.938  -4061195.023   3802819.565
10 0 59365  74622.000000  0    3532676.316  -3804041.936   4518455.239
10 0 59365  74742.000000  0    2955271.688  -3470791.924   5154559.289
10 0 59365  74862.000000  0    2332691.998  -3066399.895   5699966.082
10 0 59365  74982.000000  0    1677019.145  -2597266.139   6145116.017
10 0 59365  75102.000000  0    1000780.118  -2071130.392   6482217.388
10 0 59365  75222.000000  0     316705.350  -1496940.657   6705376.659
10 0 59365  75342.000000  0    -362511.780   -884698.540   6810695.709
10 0 59365  75462.000000  0   -1024449.751   -245283.364   6796335.327
10 0 59365  75582.000000  0   -1657185.058    409741.063   6662545.122
10 0 59365  75702.000000  0   -2249506.289   1068335.101   6411659.490
10 0 59365  75822.000000  0   -2791112.894   1718203.661   6048059.522
10 0 59365  75942.000000  0   -3272795.523   2347025.094   5578101.539
10 0 59365  76062.000000  0   -3686596.001   2942685.812   5010012.744
10 0 59365  76182.000000  0   -4025943.466   3493515.896   4353752.692
10 0 59365  76302.000000  0   -4285763.867   3988521.053   3620843.639
10 0 59365  76422.000000  0   -4462560.737   4417606.788   2824171.069
10 0 59365  76542.000000  0   -4554463.794   4771789.294   1977756.424
10 0 59365  76662.000000  0   -4561244.078   5043387.248   1096506.641
10 0 59365  76782.000000  0   -4484296.477   5226188.925    195945.858
10 0 59365  76902.000000  0   -4326589.987   5315592.287   -708065.346
10 0 59365  77022.000000  0   -4092585.029   5308714.102  -1599620.010
10 0 59365  77142.000000  0   -3788118.545   5204460.497  -2463054.284
10 0 59365  77262.000000  0   -3420263.626   5003563.662  -3283229.013
10 0 59365  77382.000000  0   -2997165.640   4708579.529  -4045799.574
10 0 59365  77502.000000  0   -2527860.515   4323849.125  -4737465.612
10 0 59365  77622.000000  0   -2022080.136   3855426.539  -5346197.291
10 0 59365  77742.000000  0   -1490050.349   3310976.615  -5861436.634
10 0 59365  77862.000000  0    -942284.396   2699642.137  -6274271.817
10 0 59365  77982.000000  0    -389376.299   2031884.199  -6577579.955
10 0 59365  78102.000000  0     158200.740   1319301.052  -6766138.111
10 0 59365  78222.000000  0     690287.569    574427.655  -6836704.113
10 0 59365  78342.000000  0    1197223.417   -189480.926  -6788067.027
10 0 59365  78462.000000  0    1670017.219   -958681.007  -6621064.600
10 0 59365  78582.000000  0    2100502.653  -1719180.937  -6338569.459
10 0 59365  78702.000000  0    2481477.025  -2456988.888  -5945445.406
10 0 59365  78822.000000  0    2806821.325  -3158365.143  -5448473.926
10 0 59365  78942.000000  0    3071601.038  -3810078.104  -4856248.901
10 0 59365  79062.000000  0    3272143.138  -4399655.146  -4179036.816
10 0 59365  79182.000000  0    3406088.245  -4915623.302  -3428609.370
10 0 59365  79302.000000  0    3472419.212  -5347739.083  -2618048.984
10 0 59365  79422.000000  0    3471462.733  -5687201.010  -1761525.348
10 0 59365  79542.000000  0    3404863.734  -5926836.592   -874048.601
10 0 59365  79662.000000  0    3275532.813  -6061261.265     28796.910
10 0 59365  79782.000000  0    3087565.962  -6087002.139    931132.853
10 0 59365  79902.000000  0    2846140.732  -6002585.331   1817073.562
10 0 59365  80022.000000  0    2557390.136  -5808582.271   2671016.350
10 0 59365  80142.000000  0    2228256.431  -5507613.158   3477924.400
10 0 59365  80262.000000  0    1866330.623  -5104310.194   4223596.803
10 0 59365  80382.000000  0    1479681.344  -4605241.388   4894922.445
10 0 59365  80502.000000  0    1076678.115  -4018796.226   5480111.603
10 0 59365  80622.000000  0     665811.261  -3355035.855   5968902.780
10 0 59365  80742.000000  0     255513.492  -2625510.904   6352737.200
10 0 59365  80862.000000  0    -146011.681  -1843054.421   6624901.610
10 0 59365  80982.000000  0    -530952.019  -1021553.059   6780639.415
10 0 59365  81102.000000  0    -892037.205   -175699.047   6817230.079
10 0 59365  81222.000000  0   -1222675.207    679273.562   6734033.887
10 0 59365  81342.000000  0   -1517072.204   1527862.966   6532502.054
10 0 59365  81462.000000  0   -1770334.068   2354579.830   6216152.992
10 0 59365  81582.000000  0   -1978548.414   3144230.037   5790514.735
10 0 59365  81702.000000  0   -2138845.305   3882195.289   5263033.513
10 0 59365  81822.000000  0   -2249436.373   4554707.462   4642950.608
10 0 59365  81942.000000  0   -2309631.504   5149112.227   3941145.952
10 0 59365  82062.000000  0   -2319832.123   5654115.540   3169950.698
10 0 59365  82182.000000  0   -2281501.145   6060006.710   2342930.788
10 0 59365  82302.000000  0   -2197110.164   6358853.373   1474646.548
10 0 59365  82422.000000  0   -2070064.550   6544663.752    580391.600
10 0 59365  82542.000000  0   -1904608.508   6613511.518   -324083.312
10 0 59365  82662.000000  0   -1705712.842   6563620.381  -1222856.298
10 0 59365  82782.000000  0   -1478947.199   6395405.150  -2100126.276
10 0 59365  82902.000000  0   -1230339.965   6111463.534  -2940499.758
10 0 59365  83022.000000  0    -966231.566   5716525.850  -3729263.621
10 0 59365  83142.000000  0    -693124.534   5217365.699  -4452643.241
10 0 59365  83262.000000  0    -417533.778   4622671.360  -5098040.393
10 0 59365  83382.000000  0    -145840.063   3942883.675  -5654246.448
10 0 59365  83502.000000  0     115850.120   3190002.976  -6111629.065
10 0 59365  83622.000000  0     361834.741   2377369.185  -6462288.148
10 0 59365  83742.000000  0     586933.642   1519422.175  -6700180.077
10 0 59365  83862.000000  0     786592.400    631446.222  -6821212.136
10 0 59365  83982.000000  0     956970.272   -270698.767  -6823305.210
10 0 59365  84102.000000  0    1095011.193  -1170855.219  -6706425.084
10 0 59365  84222.000000  0    1198496.824  -2052849.648  -6472581.193
10 0 59365  84342.000000  0    1266081.683  -2900774.769  -6125796.374
10 0 59365  84462.000000  0    1297310.114  -3699271.650  -5672047.298
10 0 59365  84582.000000  0    1292612.968  -4433807.805  -5119171.382
10 0 59365  84702.000000  0    1253286.109  -5090942.659  -4476741.659
10 0 59365  84822.000000  0    1181449.905  -5658578.952  -3755913.006
10 0 59365  84942.000000  0    1079989.517  -6126194.809  -2969237.433
10 0 59365  85062.000000  0     952478.184  -6485049.811  -2130451.953
10 0 59365  85182.000000  0     803084.772  -6728361.162  -1254241.548
10 0 59365  85302.000000  0     636466.619  -6851443.894   -355980.393
10 0 59365  85422.000000  0     457650.729  -6851810.300    548542.689
10 0 59365  85542.000000  0     271906.368  -6729226.860   1443408.430
99
